[{"OBJECT_NAME":"SES-2","OBJECT_ID":"2011-049A","EPOCH":"2026-03-03T02:10:39.859104","MEAN_MOTION":1.00272689,"ECCENTRICITY":0.0002967,"INCLINATION":0.0329,"RA_OF_ASC_NODE":77.2137,"ARG_OF_PERICENTER":261.7424,"MEAN_ANOMALY":127.5488,"EPHEMERIS_TYPE":0,"CLASSIFICATION_TYPE":"U","NORAD_CAT_ID":37809,"ELEMENT_SET_NO":999,"REV_AT_EPOCH":5290,"BSTAR":0,"MEAN_MOTION_DOT":-2.12e-6,"MEAN_MOTION_DDOT":0},{"OBJECT_NAME":"QUETZSAT 1","OBJECT_ID":"2011-054A","EPOCH":"2026-03-03T03:25:38.777088","MEAN_MOTION":1.00271493,"ECCENTRICITY":0.000273,"INCLINATION":0.0558,"RA_OF_ASC_NODE":288.6193,"ARG_OF_PERICENTER":66.9631,"MEAN_ANOMALY":139.7262,"EPHEMERIS_TYPE":0,"CLASSIFICATION_TYPE":"U","NORAD_CAT_ID":37826,"ELEMENT_SET_NO":999,"REV_AT_EPOCH":4881,"BSTAR":0,"MEAN_MOTION_DOT":-2.57e-6,"MEAN_MOTION_DDOT":0},{"OBJECT_NAME":"SES-4","OBJECT_ID":"2012-007A","EPOCH":"2026-03-03T01:59:29.463360","MEAN_MOTION":1.00270019,"ECCENTRICITY":0.0002468,"INCLINATION":0.034,"RA_OF_ASC_NODE":62.4216,"ARG_OF_PERICENTER":291.5293,"MEAN_ANOMALY":174.7707,"EPHEMERIS_TYPE":0,"CLASSIFICATION_TYPE":"U","NORAD_CAT_ID":38087,"ELEMENT_SET_NO":999,"REV_AT_EPOCH":5116,"BSTAR":0,"MEAN_MOTION_DOT":-1.84e-6,"MEAN_MOTION_DDOT":0},{"OBJECT_NAME":"SES-5","OBJECT_ID":"2012-036A","EPOCH":"2026-03-03T03:49:48.888768","MEAN_MOTION":1.00271204,"ECCENTRICITY":0.0002013,"INCLINATION":0.0623,"RA_OF_ASC_NODE":308.3085,"ARG_OF_PERICENTER":28.3836,"MEAN_ANOMALY":246.6545,"EPHEMERIS_TYPE":0,"CLASSIFICATION_TYPE":"U","NORAD_CAT_ID":38652,"ELEMENT_SET_NO":999,"REV_AT_EPOCH":4339,"BSTAR":0,"MEAN_MOTION_DOT":1.8e-7,"MEAN_MOTION_DDOT":0},{"OBJECT_NAME":"ASTRA 2F","OBJECT_ID":"2012-051A","EPOCH":"2026-03-03T02:13:43.097952","MEAN_MOTION":1.00273514,"ECCENTRICITY":0.0002673,"INCLINATION":0.0759,"RA_OF_ASC_NODE":259.1073,"ARG_OF_PERICENTER":15.1586,"MEAN_ANOMALY":308.1955,"EPHEMERIS_TYPE":0,"CLASSIFICATION_TYPE":"U","NORAD_CAT_ID":38778,"ELEMENT_SET_NO":999,"REV_AT_EPOCH":4007,"BSTAR":0,"MEAN_MOTION_DOT":1.34e-6,"MEAN_MOTION_DDOT":0},{"OBJECT_NAME":"SES-6","OBJECT_ID":"2013-026A","EPOCH":"2026-03-03T04:07:50.037024","MEAN_MOTION":1.00272357,"ECCENTRICITY":0.0001856,"INCLINATION":0.0687,"RA_OF_ASC_NODE":287.38,"ARG_OF_PERICENTER":57.1515,"MEAN_ANOMALY":197.8407,"EPHEMERIS_TYPE":0,"CLASSIFICATION_TYPE":"U","NORAD_CAT_ID":39172,"ELEMENT_SET_NO":999,"REV_AT_EPOCH":4666,"BSTAR":0,"MEAN_MOTION_DOT":-2.77e-6,"MEAN_MOTION_DDOT":0},{"OBJECT_NAME":"O3B FM5","OBJECT_ID":"2013-031A","EPOCH":"2026-03-03T02:21:20.356992","MEAN_MOTION":5.00116441,"ECCENTRICITY":0.000334,"INCLINATION":0.0974,"RA_OF_ASC_NODE":14.4079,"ARG_OF_PERICENTER":318.8297,"MEAN_ANOMALY":26.7381,"EPHEMERIS_TYPE":0,"CLASSIFICATION_TYPE":"U","NORAD_CAT_ID":39188,"ELEMENT_SET_NO":999,"REV_AT_EPOCH":23172,"BSTAR":0,"MEAN_MOTION_DOT":-2.8e-7,"MEAN_MOTION_DDOT":0},{"OBJECT_NAME":"O3B FM4","OBJECT_ID":"2013-031B","EPOCH":"2026-03-03T00:25:04.242144","MEAN_MOTION":5.00115225,"ECCENTRICITY":0.0005039,"INCLINATION":0.0555,"RA_OF_ASC_NODE":345.1625,"ARG_OF_PERICENTER":4.8131,"MEAN_ANOMALY":10.0072,"EPHEMERIS_TYPE":0,"CLASSIFICATION_TYPE":"U","NORAD_CAT_ID":39189,"ELEMENT_SET_NO":999,"REV_AT_EPOCH":23173,"BSTAR":0,"MEAN_MOTION_DOT":-2.9e-7,"MEAN_MOTION_DDOT":0},{"OBJECT_NAME":"O3B FM2","OBJECT_ID":"2013-031C","EPOCH":"2026-03-02T16:23:58.555104","MEAN_MOTION":5.00115954,"ECCENTRICITY":0.00028431,"INCLINATION":0.0567,"RA_OF_ASC_NODE":339.0902,"ARG_OF_PERICENTER":359.6148,"MEAN_ANOMALY":21.2758,"EPHEMERIS_TYPE":0,"CLASSIFICATION_TYPE":"U","NORAD_CAT_ID":39190,"ELEMENT_SET_NO":999,"REV_AT_EPOCH":23178,"BSTAR":0,"MEAN_MOTION_DOT":-2.9e-7,"MEAN_MOTION_DDOT":0},{"OBJECT_NAME":"O3B PFM","OBJECT_ID":"2013-031D","EPOCH":"2026-03-02T16:44:17.769696","MEAN_MOTION":5.00116023,"ECCENTRICITY":0.000513,"INCLINATION":0.0664,"RA_OF_ASC_NODE":7.7761,"ARG_OF_PERICENTER":348.6347,"MEAN_ANOMALY":3.5783,"EPHEMERIS_TYPE":0,"CLASSIFICATION_TYPE":"U","NORAD_CAT_ID":39191,"ELEMENT_SET_NO":999,"REV_AT_EPOCH":23134,"BSTAR":0,"MEAN_MOTION_DOT":-2.9e-7,"MEAN_MOTION_DDOT":0},{"OBJECT_NAME":"ASTRA 2E","OBJECT_ID":"2013-056A","EPOCH":"2026-03-03T02:13:50.587104","MEAN_MOTION":1.00271429,"ECCENTRICITY":0.0002196,"INCLINATION":0.0678,"RA_OF_ASC_NODE":28.0541,"ARG_OF_PERICENTER":307.0232,"MEAN_ANOMALY":247.709,"EPHEMERIS_TYPE":0,"CLASSIFICATION_TYPE":"U","NORAD_CAT_ID":39285,"ELEMENT_SET_NO":999,"REV_AT_EPOCH":4535,"BSTAR":0,"MEAN_MOTION_DOT":1.34e-6,"MEAN_MOTION_DDOT":0},{"OBJECT_NAME":"SES-8","OBJECT_ID":"2013-071A","EPOCH":"2026-03-02T14:42:59.332608","MEAN_MOTION":1.00267709,"ECCENTRICITY":0.0001676,"INCLINATION":0.0622,"RA_OF_ASC_NODE":272.7609,"ARG_OF_PERICENTER":99.9747,"MEAN_ANOMALY":103.3736,"EPHEMERIS_TYPE":0,"CLASSIFICATION_TYPE":"U","NORAD_CAT_ID":39460,"ELEMENT_SET_NO":999,"REV_AT_EPOCH":4337,"BSTAR":0,"MEAN_MOTION_DOT":-2.85e-6,"MEAN_MOTION_DDOT":0},{"OBJECT_NAME":"ASTRA 5B","OBJECT_ID":"2014-011B","EPOCH":"2026-03-03T03:13:38.772192","MEAN_MOTION":1.00270217,"ECCENTRICITY":0.0004207,"INCLINATION":0.0936,"RA_OF_ASC_NODE":297.5206,"ARG_OF_PERICENTER":25.9413,"MEAN_ANOMALY":269.3272,"EPHEMERIS_TYPE":0,"CLASSIFICATION_TYPE":"U","NORAD_CAT_ID":39617,"ELEMENT_SET_NO":999,"REV_AT_EPOCH":4360,"BSTAR":0,"MEAN_MOTION_DOT":1.21e-6,"MEAN_MOTION_DDOT":0},{"OBJECT_NAME":"O3B FM3","OBJECT_ID":"2014-038A","EPOCH":"2026-03-02T23:08:04.538688","MEAN_MOTION":5.00115535,"ECCENTRICITY":4.32e-5,"INCLINATION":0.053,"RA_OF_ASC_NODE":353.4674,"ARG_OF_PERICENTER":43.3172,"MEAN_ANOMALY":323.2111,"EPHEMERIS_TYPE":0,"CLASSIFICATION_TYPE":"U","NORAD_CAT_ID":40079,"ELEMENT_SET_NO":999,"REV_AT_EPOCH":20773,"BSTAR":0,"MEAN_MOTION_DOT":-2.9e-7,"MEAN_MOTION_DDOT":0},{"OBJECT_NAME":"O3B FM7","OBJECT_ID":"2014-038B","EPOCH":"2026-03-02T07:26:54.646080","MEAN_MOTION":5.00115622,"ECCENTRICITY":0.00044887,"INCLINATION":0.0588,"RA_OF_ASC_NODE":348.9474,"ARG_OF_PERICENTER":339.4059,"MEAN_ANOMALY":31.6123,"EPHEMERIS_TYPE":0,"CLASSIFICATION_TYPE":"U","NORAD_CAT_ID":40080,"ELEMENT_SET_NO":999,"REV_AT_EPOCH":21253,"BSTAR":0,"MEAN_MOTION_DOT":-2.9e-7,"MEAN_MOTION_DDOT":0},{"OBJECT_NAME":"O3B FM6","OBJECT_ID":"2014-038C","EPOCH":"2026-02-28T08:07:22.842912","MEAN_MOTION":5.00115665,"ECCENTRICITY":0.00026722,"INCLINATION":0.055,"RA_OF_ASC_NODE":351.2998,"ARG_OF_PERICENTER":345.9055,"MEAN_ANOMALY":22.7755,"EPHEMERIS_TYPE":0,"CLASSIFICATION_TYPE":"U","NORAD_CAT_ID":40081,"ELEMENT_SET_NO":999,"REV_AT_EPOCH":21238,"BSTAR":0,"MEAN_MOTION_DOT":-2.8e-7,"MEAN_MOTION_DDOT":0},{"OBJECT_NAME":"O3B FM8","OBJECT_ID":"2014-038D","EPOCH":"2026-03-02T18:58:16.150944","MEAN_MOTION":5.00115957,"ECCENTRICITY":0.0002658,"INCLINATION":0.0559,"RA_OF_ASC_NODE":350.742,"ARG_OF_PERICENTER":353.1323,"MEAN_ANOMALY":16.1099,"EPHEMERIS_TYPE":0,"CLASSIFICATION_TYPE":"U","NORAD_CAT_ID":40082,"ELEMENT_SET_NO":999,"REV_AT_EPOCH":21262,"BSTAR":0,"MEAN_MOTION_DOT":-2.9e-7,"MEAN_MOTION_DDOT":0}]
