SES-2                   
1 37809U 11049A   26062.09073911 -.00000212  00000+0  00000+0 0  9992
2 37809   0.0329  77.2137 0002967 261.7424 127.5488  1.00272689 52906
QUETZSAT 1              
1 37826U 11054A   26062.14280992 -.00000257  00000+0  00000+0 0  9991
2 37826   0.0558 288.6193 0002730  66.9631 139.7262  1.00271493 48814
SES-4                   
1 38087U 12007A   26062.08297990 -.00000184  00000+0  00000+0 0  9998
2 38087   0.0340  62.4216 0002468 291.5293 174.7707  1.00270019 51163
SES-5                   
1 38652U 12036A   26062.15959362  .00000018  00000+0  00000+0 0  9999
2 38652   0.0623 308.3085 0002013  28.3836 246.6545  1.00271204 43398
ASTRA 2F                
1 38778U 12051A   26062.09285993  .00000134  00000+0  00000+0 0  9999
2 38778   0.0759 259.1073 0002673  15.1586 308.1955  1.00273514 40072
SES-6                   
1 39172U 13026A   26062.17210691 -.00000277  00000+0  00000+0 0  9992
2 39172   0.0687 287.3800 0001856  57.1515 197.8407  1.00272357 46662
O3B FM5                 
1 39188U 13031A   26062.09815228 -.00000028  00000+0  00000+0 0  9997
2 39188   0.0974  14.4079 0003340 318.8297  26.7381  5.00116441231728
O3B FM4                 
1 39189U 13031B   26062.01741021 -.00000029  00000+0  00000+0 0  9990
2 39189   0.0555 345.1625 0005039   4.8131  10.0072  5.00115225231734
O3B FM2                 
1 39190U 13031C   26061.68331661 -.00000029  00000+0  00000+0 0  9999
2 39190   0.0567 339.0902 0002843 359.6148  21.2758  5.00115954231787
O3B PFM                 
1 39191U 13031D   26061.69742789 -.00000029  00000+0  00000+0 0  9998
2 39191   0.0664   7.7761 0005130 348.6347   3.5783  5.00116023231340
ASTRA 2E                
1 39285U 13056A   26062.09294661  .00000134  00000+0  00000+0 0  9991
2 39285   0.0678  28.0541 0002196 307.0232 247.7090  1.00271429 45357
SES-8                   
1 39460U 13071A   26061.61318672 -.00000285  00000+0  00000+0 0  9997
2 39460   0.0622 272.7609 0001676  99.9747 103.3736  1.00267709 43374
ASTRA 5B                
1 39617U 14011B   26062.13447653  .00000121  00000+0  00000+0 0  9994
2 39617   0.0936 297.5206 0004207  25.9413 269.3272  1.00270217 43608
O3B FM3                 
1 40079U 14038A   26061.96394142 -.00000029  00000+0  00000+0 0  9999
2 40079   0.0530 353.4674 0000432  43.3172 323.2111  5.00115535207738
O3B FM7                 
1 40080U 14038B   26061.31035470 -.00000029  00000+0  00000+0 0  9996
2 40080   0.0588 348.9474 0004488 339.4059  31.6123  5.00115622212532
O3B FM6                 
1 40081U 14038C   26059.33845883 -.00000028  00000+0  00000+0 0  9992
2 40081   0.0550 351.2998 0002672 345.9055  22.7755  5.00115665212383
O3B FM8                 
1 40082U 14038D   26061.79046471 -.00000029  00000+0  00000+0 0  9993
2 40082   0.0559 350.7420 0002658 353.1323  16.1099  5.00115957212629
